     2.100          NAVIGATION                              RINEX VERSION / TYPE
fic2rin                                 05/21/2010 00:18:41 PGM / RUN BY / DATE
                                                            END OF HEADER
 9 10  5 20 11 59 44.0  .763963907957D-05  .227373675443D-11  .000000000000D+00
     .500000000000D+01  .282500000000D+02  .393123518030D-08 -.215155264691D+01
     .162981450558D-05  .170198804699D-01  .487826764584D-05  .515371728706D+04
     .388784000000D+06  .249594449997D-06  .260676805664D+01  .102445483208D-06
     .980763395909D+00  .293218750000D+03  .151557731502D+01 -.777389524251D-08
     .170007081477D-09  .100000000000D+01  .158400000000D+04  .000000000000D+00
     .240000000000D+01  .000000000000D+00 -.558793544769D-08  .500000000000D+01
     .385986000000D+06  .400000000000D+01
28 10  5 20 11 59 44.0 -.157556496561D-04  .102318153949D-11  .000000000000D+00
     .500000000000D+01 -.849687500000D+02  .429125017637D-08  .200766145390D+01
    -.453554093838D-05  .159451304935D-01  .583380460739D-05  .515367284012D+04
     .388784000000D+06  .223517417908D-07 -.256671075271D+01 -.342726707458D-06
     .970335641231D+00  .272906250000D+03 -.195377083904D+01 -.805212111745D-08
    -.278583032673D-10  .100000000000D+01  .158400000000D+04  .000000000000D+00
     .240000000000D+01  .000000000000D+00 -.107102096081D-07  .500000000000D+01
     .387156000000D+06  .400000000000D+01
 6 10  5 20 13 59 44.0  .634198077023D-03 -.114823706099D-10  .000000000000D+00
     .640000000000D+02 -.245625000000D+02  .499806533234D-08 -.290816255452D+01
    -.131502747536D-05  .629143544938D-02  .101737678051D-04  .515366401291D+04
     .395984000000D+06  .409781932831D-07 -.160462342104D+01  .763684511185D-07
     .934188000497D+00  .164093750000D+03 -.106699087426D+01 -.815033949435D-08
     .203579908492D-09  .100000000000D+01  .158400000000D+04  .000000000000D+00
     .240000000000D+01  .000000000000D+00 -.512227416039D-08  .640000000000D+02
     .388806000000D+06  .400000000000D+01
 9 10  5 20 13 59 44.0  .765593722463D-05  .227373675443D-11  .000000000000D+00
     .600000000000D+01  .345937500000D+02  .426053461123D-08 -.110155125180D+01
     .203028321266D-05  .170201384462D-01  .593997538090D-05  .515371240616D+04
     .395984000000D+06 -.270083546638D-06  .260671068392D+01  .270083546638D-06
     .980761981267D+00  .275812500000D+03  .151572837302D+01 -.831034615927D-08
     .127505311108D-09  .100000000000D+01  .158400000000D+04  .000000000000D+00
     .240000000000D+01  .000000000000D+00 -.558793544769D-08  .600000000000D+01
     .388806000000D+06  .400000000000D+01
18 10  5 20 13 59 44.0  .694254413247D-04  .250111042988D-11  .000000000000D+00
     .900000000000D+01 -.859375000000D+01  .532557897460D-08 -.240829475958D+01
    -.488013029099D-06  .113574204734D-01  .660866498947D-05  .515369054794D+04
     .395984000000D+06  .206753611565D-06  .562573042751D+00 -.152736902237D-06
     .937690935894D+00  .238125000000D+03 -.233970093442D+01 -.839534970001D-08
    -.213223167315D-09  .100000000000D+01  .158400000000D+04  .000000000000D+00
     .240000000000D+01  .000000000000D+00 -.107102096081D-07  .900000000000D+01
     .388806000000D+06  .400000000000D+01
27 10  5 20 13 59 44.0  .153647270054D-03  .341060513165D-11  .000000000000D+00
     .430000000000D+02  .300312500000D+02  .413981529707D-08  .199601807574D+01
     .130943953991D-05  .215268813772D-01  .509619712830D-05  .515362776375D+04
     .395984000000D+06  .290572643280D-06  .258173033221D+01 -.160187482834D-06
     .978413430138D+00  .278968750000D+03 -.142037530824D+01 -.780568228086D-08
     .175007289756D-10  .100000000000D+01  .158400000000D+04  .000000000000D+00
     .240000000000D+01  .000000000000D+00 -.419095158577D-08  .430000000000D+02
     .388806000000D+06  .400000000000D+01
28 10  5 20 13 59 44.0 -.157486647367D-04  .102318153949D-11  .000000000000D+00
     .600000000000D+01 -.896250000000D+02  .423981946264D-08  .305789330542D+01
    -.460073351860D-05  .159457365517D-01  .608712434769D-05  .515367106247D+04
     .395984000000D+06  .124797224998D-06 -.256676697411D+01 -.707805156708D-07
     .970336009887D+00  .265500000000D+03 -.195382261171D+01 -.782675458717D-08
    -.108218793461D-09  .100000000000D+01  .158400000000D+04  .000000000000D+00
     .240000000000D+01  .000000000000D+00 -.107102096081D-07  .600000000000D+01
     .388806000000D+06  .400000000000D+01
 1 10  5 20 14  0  0.0 -.121409539133D-03 -.397903932026D-11  .000000000000D+00
     .640000000000D+02 -.722500000000D+02  .560951937328D-08  .313389459287D+01
    -.372156500816D-05  .469792785589D-02  .618770718575D-05  .515480268669D+04
     .396000000000D+06  .111758708954D-07 -.260623095797D+01 -.186264514923D-07
     .964810587319D+00  .263281250000D+03  .862337181336D+00 -.805497837932D-08
    -.246438836595D-10  .100000000000D+01  .158400000000D+04  .000000000000D+00
     .240000000000D+01  .630000000000D+02 -.190921127796D-07  .640000000000D+02
     .388806000000D+06  .400000000000D+01
 2 10  5 20 14  0  0.0  .257352832705D-03  .341060513165D-11  .000000000000D+00
     .120000000000D+02  .415937500000D+02  .534415117678D-08  .122586011598D+01
     .212527811527D-05  .954589003231D-02  .753253698349D-05  .515357939148D+04
     .396000000000D+06  .633299350739D-07 -.522604473580D+00  .856816768646D-07
     .939989978950D+00  .222750000000D+03  .306593661920D+01 -.841963642594D-08
     .177864551630D-09  .100000000000D+01  .158400000000D+04  .000000000000D+00
     .240000000000D+01  .000000000000D+00 -.172294676304D-07  .120000000000D+02
     .388806000000D+06  .400000000000D+01
 3 10  5 20 14  0  0.0  .557514373213D-03  .511590769747D-11  .000000000000D+00
     .370000000000D+02 -.356250000000D+02  .526664794846D-08  .115564654939D+01
    -.189431011677D-05  .130775887519D-01  .104606151581D-04  .515371210861D+04
     .396000000000D+06 -.184401869774D-06 -.167520648125D+01  .484287738800D-07
     .926867559891D+00  .162000000000D+03  .993138677835D+00 -.855357057626D-08
     .396445084958D-10  .100000000000D+01  .158400000000D+04  .000000000000D+00
     .240000000000D+01  .000000000000D+00 -.465661287308D-08  .370000000000D+02
     .388806000000D+06  .400000000000D+01
 4 10  5 20 14  0  0.0  .860248692334D-04  .829913915368D-11  .000000000000D+00
     .190000000000D+02  .395625000000D+02  .532022160858D-08 -.196331771515D+01
     .174902379513D-05  .907955737785D-02  .736303627491D-05  .515368662643D+04
     .396000000000D+06  .134110450745D-06 -.504736930513D+00 -.968575477600D-07
     .939141765881D+00  .221375000000D+03  .606038916548D+00 -.835963392659D-08
     .422517599554D-09  .100000000000D+01  .158400000000D+04  .000000000000D+00
     .240000000000D+01  .000000000000D+00 -.605359673500D-08  .190000000000D+02
     .388806000000D+06  .400000000000D+01
 5 10  5 20 14  0  0.0 -.364612787962D-05 -.125055521494D-11  .000000000000D+00
     .130000000000D+02  .153125000000D+01  .497377860641D-08  .280537380777D+01
     .651925802231D-07  .182740658056D-02  .684149563313D-05  .515370134354D+04
     .396000000000D+06 -.223517417908D-07  .536722895543D+00 -.111758708954D-07
     .958699620087D+00  .247812500000D+03  .306369064496D+00 -.822498546080D-08
    -.334656796942D-09  .100000000000D+01  .158400000000D+04  .000000000000D+00
     .240000000000D+01  .000000000000D+00 -.884756445885D-08  .130000000000D+02
     .388806000000D+06  .400000000000D+01
 7 10  5 20 14  0  0.0 -.621657818556D-06 -.341060513165D-12  .000000000000D+00
     .570000000000D+02  .310000000000D+02  .435482425305D-08 -.354185419667D+00
     .142306089401D-05  .349059095606D-02  .531412661076D-05  .515371394348D+04
     .396000000000D+06  .121071934700D-06  .263796278926D+01 -.670552253723D-07
     .971676720178D+00  .284781250000D+03  .303559405976D+01 -.825927260328D-08
     .825034365993D-10  .100000000000D+01  .158400000000D+04  .000000000000D+00
     .240000000000D+01  .000000000000D+00 -.102445483208D-07  .570000000000D+02
     .388806000000D+06  .400000000000D+01
 8 10  5 20 14  0  0.0  .544358044863D-05  .113686837722D-12  .000000000000D+00
     .430000000000D+02  .282187500000D+02  .387230415415D-08 -.992059904488D+00
     .133365392685D-05  .110616999445D-01  .529177486897D-05  .515368846321D+04
     .396000000000D+06  .484287738800D-07  .270571205572D+01 -.298023223877D-06
     .993082718293D+00  .294750000000D+03  .309938480157D+01 -.796997483859D-08
     .204651381694D-09  .100000000000D+01  .158400000000D+04  .000000000000D+00
     .240000000000D+01  .000000000000D+00 -.372529029846D-08  .430000000000D+02
     .388806000000D+06  .400000000000D+01
10 10  5 20 14  0  0.0 -.429572537541D-04 -.795807864051D-12  .000000000000D+00
     .810000000000D+02 -.250000000000D+00  .500377985609D-08  .287831857658D+01
    -.132247805595D-06  .915936392266D-02  .702030956745D-05  .515350174332D+04
     .396000000000D+06 -.465661287308D-07  .562521902061D+00 -.119209289551D-06
     .953714302486D+00  .240718750000D+03  .668038157168D+00 -.815069665209D-08
    -.370015412627D-09  .100000000000D+01  .158400000000D+04  .000000000000D+00
     .240000000000D+01  .000000000000D+00 -.279396772385D-08  .810000000000D+02
     .388806000000D+06  .400000000000D+01
11 10  5 20 14  0  0.0 -.637285411358D-04 -.227373675443D-11  .000000000000D+00
     .580000000000D+02  .422812500000D+02  .652848622337D-08 -.481638505880D+00
     .235997140408D-05  .106316474266D-01  .774301588535D-05  .515373946381D+04
     .396000000000D+06  .577419996262D-07 -.740806253760D+00  .178813934326D-06
     .888363632117D+00  .193031250000D+03  .804370256427D+00 -.919038281633D-08
     .346085844436D-09  .100000000000D+01  .158400000000D+04  .000000000000D+00
     .240000000000D+01  .000000000000D+00 -.116415321827D-07  .580000000000D+02
     .388806000000D+06  .400000000000D+01
